# From MPEC 2026-FC3
404P/Bressi,e,9.8037,260.0304,168.7585,4.715209,0.0962615,0.12365103,87.4545,04/25.0/2026,2000,g 10.0,4.0
# From MPC191631
406P/Gibbs,e,1.2098,11.4902,352.4284,3.580404,0.1454809,0.54076985,298.0235,04/25.0/2026,2000,g 17.0,4.0
# From MPC191631
407P/PANSTARRS-Fuls,e,4.8719,80.2317,92.9768,3.493963,0.1509130,0.37507476,346.2037,04/25.0/2026,2000,g 14.0,4.0
# From MPC191631
408P/Novichonok-Gerke,e,19.3459,189.4510,226.7522,4.747503,0.0952810,0.26801042,123.5968,04/25.0/2026,2000,g 11.0,4.0
# From MPC191631
410P/NEAT-LINEAR,e,9.3890,139.8852,313.3923,6.658082,0.0573694,0.51151794,101.2610,04/25.0/2026,2000,g 12.5,4.0
# From MPC191632
412P/WISE,e,8.9285,0.8181,155.8192,3.113153,0.1794334,0.47909131,353.6228,04/25.0/2026,2000,g 17.0,4.0
# From MPC191632
413P/Larson,e,15.9490,38.9319,186.6540,3.738003,0.1363781,0.41732912,238.3523,04/25.0/2026,2000,g 14.0,4.0
# From MPC191632
414P/STEREO,e,23.4057,257.8156,210.7158,2.792641,0.2111939,0.81227916,44.4957,04/25.0/2026,2000,g 19.0,4.0
# From MPC191632
415P/Tenagra,e,31.8174,160.2584,345.9604,4.106761,0.1184281,0.19583918,224.3018,04/25.0/2026,2000,g 12.0,4.0
# From MPC191632
416P/Scotti,e,3.3646,355.7197,134.4990,4.005390,0.1229524,0.45571004,232.6335,04/25.0/2026,2000,g 15.5,4.0
# From MPC191632
417P/NEOWISE,e,11.3323,95.2564,142.0900,3.384915,0.1582641,0.53562286,298.0867,04/25.0/2026,2000,g 16.5,4.0
# From MPC191632
418P/LINEAR,e,5.7874,277.2427,307.6610,5.086892,0.0859064,0.66439767,141.8671,04/25.0/2026,2000,g 13.0,4.0
# From MPC191632
419P/PANSTARRS,e,2.7899,40.3423,187.6475,3.540326,0.1479583,0.27194746,244.1756,04/25.0/2026,2000,g 12.5,4.0
# From MPC191632
420P/Hill,e,14.5406,173.2675,156.4069,5.469571,0.0770503,0.49464261,111.0079,04/25.0/2026,2000,g 11.5,4.0
# From MPC191633
422P/Christensen,e,39.5799,36.0076,304.7125,6.270857,0.0627645,0.50525187,98.3202,04/25.0/2026,2000,g 11.0,4.0
# From MPC191633
423P/Lemmon,e,8.3393,33.2974,81.2418,6.186362,0.0640547,0.12273559,106.8300,04/25.0/2026,2000,g  8.0,4.0
# From MPC191633
425P/Kowalski,e,16.4048,210.0943,201.0351,6.354753,0.0615256,0.54325240,103.2130,04/25.0/2026,2000,g 12.0,4.0
# From MPC191633
426P/PANSTARRS,e,17.7840,280.3958,118.3856,3.186378,0.1732838,0.16076921,166.0122,04/25.0/2026,2000,g 13.5,4.0
# From MPC191633
427P/ATLAS,e,11.8651,252.3243,99.6076,3.163565,0.1751616,0.31520833,198.6355,04/25.0/2026,2000,g 14.0,4.0
# From MPC191633
428P/Gibbs,e,8.5024,299.3044,36.8671,3.489610,0.1511955,0.51806467,273.5270,04/25.0/2026,2000,g 15.0,4.0
# From MPC191633
429P/LINEAR-Hill,e,7.5140,321.9941,75.7536,3.556741,0.1469352,0.49045286,231.3125,04/25.0/2026,2000,g 15.5,4.0
# From MPC191633
430P/Scotti,e,4.4764,54.6346,94.4946,3.102364,0.1803703,0.50053830,289.2252,04/25.0/2026,2000,g 16.5,4.0
# From MPC191633
431P/Scotti,e,22.3717,202.8243,200.0161,3.477728,0.1519709,0.47701378,232.7837,04/25.0/2026,2000,g 14.0,4.0
# From MPC191634
432P/PANSTARRS,e,10.0664,239.1294,105.2164,3.038960,0.1860444,0.24070297,316.4043,04/25.0/2026,2000,g 17.0,4.0
# From MPC191634
434P/Tenagra,e,6.3365,288.9091,128.4866,4.137445,0.1171132,0.27388342,192.2063,04/25.0/2026,2000,g 13.0,4.0
# From MPC191634
435P/PANSTARRS,e,18.8743,98.5238,244.1669,3.022236,0.1875908,0.31744427,325.3706,04/25.0/2026,2000,g 17.0,4.0
# From MPC191634
437P/Lemmon-PANSTARRS,e,3.6882,245.8426,207.1605,4.571056,0.1008508,0.25481930,135.4803,04/25.0/2026,2000,g 13.0,4.0
# From MPC191634
438P/Christensen,e,8.2806,260.1104,58.9334,3.854092,0.1302630,0.41409923,288.6163,04/25.0/2026,2000,g 14.5,4.0
# From MPC191634
439P/LINEAR,e,7.1111,56.3998,342.1395,3.492434,0.1510121,0.46877034,257.1547,04/25.0/2026,2000,g 13.5,4.0
# From MPC191634
441P/PANSTARRS,e,2.5747,143.5880,178.8137,4.130319,0.1174164,0.19430215,26.7610,04/25.0/2026,2000,g 13.5,4.0
# From MPC191634
442P/McNaught,e,6.0600,31.8373,310.5955,4.948008,0.0895485,0.53288410,120.6405,04/25.0/2026,2000,g 13.5,4.0
# From MPC191635
443P/PANSTARRS-Christensen,e,19.8883,108.9319,145.0053,4.124117,0.1176814,0.28277220,152.3302,04/25.0/2026,2000,g 13.5,4.0
# From MPC191635
445P/Lemmon-PANSTARRS,e,1.0896,126.6044,213.0411,4.042672,0.1212555,0.41489516,163.4664,04/25.0/2026,2000,g 15.0,4.0
# From MPC191635
447P/Sheppard-Tholen,e,7.4418,302.6389,97.2476,5.621083,0.0739561,0.17680334,99.8970,04/25.0/2026,2000,g 12.0,4.0
# From MPC191635
448P/PANSTARRS,e,12.1419,161.7449,218.8040,3.637387,0.1420757,0.41775714,188.6059,04/25.0/2026,2000,g 16.0,4.0
# From MPC191635
449P/Leonard,e,15.4668,242.5131,176.7901,3.599386,0.1443316,0.47962481,285.1902,04/25.0/2026,2000,g 16.0,4.0
# From MPEC 2026-G41
450P/LONEOS,e,11.1301,123.7673,29.8793,7.666455,0.0464314,0.29978440,343.8748,04/25.0/2026,2000,g  6.5,4.0
# From MPC191635
451P/Christensen,e,26.4884,300.8605,186.8451,6.353796,0.0615395,0.55931280,76.5388,04/25.0/2026,2000,g 13.5,4.0
# From MPC191635
452P/Sheppard-Jewitt,e,6.4226,123.6587,37.1525,7.316177,0.0498056,0.42889652,54.5105,04/25.0/2026,2000,g  9.0,4.0
# From MPC191636
453P/WISE-Lemmon,e,27.0489,42.8782,70.9477,5.469838,0.0770446,0.58315327,88.4824,04/25.0/2026,2000,g 14.0,4.0
# From MPC191636
454P/PANSTARRS,e,19.8032,54.5860,20.2449,4.212952,0.1139789,0.36111546,155.9666,04/25.0/2026,2000,g 14.0,4.0
# From MPC191636
455P/PANSTARRS,e,14.1333,146.1716,237.5305,3.154218,0.1759408,0.30409371,203.3181,04/25.0/2026,2000,g 17.0,4.0
# From MPC191636
456P/PANSTARRS,e,16.9650,243.1367,232.9867,3.168513,0.1747515,0.11554004,65.5723,04/25.0/2026,2000,g 13.5,4.0
# From MPC191636
457P/Lemmon-PANSTARRS,e,5.2256,175.9591,104.3169,2.645316,0.2290803,0.11815113,140.4508,04/25.0/2026,2000,g 15.5,4.0
# From MPC191636
458P/Jahn,e,13.6218,1.5374,105.0048,3.859897,0.1299692,0.31719347,165.3057,04/25.0/2026,2000,g 14.0,4.0
# From MPC191636
459P/Catalina,e,7.1721,256.9820,205.2497,3.240546,0.1689572,0.57784012,195.6586,04/25.0/2026,2000,g 15.5,4.0
# From MPC191636
461P/WISE,e,18.3933,194.3676,174.8191,3.145032,0.1767122,0.56935321,294.0614,04/25.0/2026,2000,g 18.5,4.0
# From MPC191637
464P/PANSTARRS,e,21.6731,309.5770,267.4623,4.682317,0.0972776,0.28090694,112.1232,04/25.0/2026,2000,g 10.5,4.0
# From MPC191637
465P/Hill,e,25.8634,217.9075,140.9492,6.000369,0.0670559,0.61282634,72.6022,04/25.0/2026,2000,g 12.5,4.0
# From MPC191637
466P/PANSTARRS,e,16.9281,114.9703,195.9757,3.958028,0.1251658,0.46157201,143.2448,04/25.0/2026,2000,g 14.0,4.0
# From MPC191637
467P/LINEAR-Grauer,e,2.4796,43.2616,266.9231,5.822601,0.0701501,0.05409033,87.8883,04/25.0/2026,2000,g  9.0,4.0
# From MPC191637
468P/SidingSpring,e,50.4580,356.1352,322.5265,7.111674,0.0519692,0.44456797,46.0630,04/25.0/2026,2000,g 11.5,4.0
# From MPC191637
469P/PANSTARRS,e,20.1701,178.9616,43.4982,4.344631,0.1088366,0.30834038,14.9759,04/25.0/2026,2000,g 13.5,4.0
# From MPC191637
470P/PANSTARRS,e,8.8441,246.1537,151.6181,4.460628,0.1046189,0.38915523,90.0510,04/25.0/2026,2000,g 15.5,4.0
# From MPC191637
471P/LINEAR-Lemmon,e,4.7964,283.3052,94.6839,5.683516,0.0727409,0.62749596,62.3787,04/25.0/2026,2000,g 12.0,4.0
# From MPEC 2026-E44
472P/NEAT-LINEAR,e,10.8295,205.7840,218.7708,7.753353,0.0456530,0.56335058,29.7069,04/25.0/2026,2000,g 10.5,4.0
# From MPC191638
473P/NEAT,e,56.8723,22.1912,42.9545,7.973949,0.0437718,0.82351986,34.5288,04/25.0/2026,2000,g 13.5,4.0
# From MPC191638
474P/Hogan,e,1.0967,26.7519,11.2681,3.131313,0.1778748,0.18773670,180.4887,04/25.0/2026,2000,g 15.5,4.0
# From MPC191638
475P/Spacewatch-LINEAR,e,14.5247,147.3475,40.4457,7.323275,0.0497332,0.44322531,34.4184,04/25.0/2026,2000,g 11.0,4.0
# From MPC191638
476P/PANSTARRS,e,19.0049,57.0503,46.7640,4.775019,0.0944586,0.34572600,52.4668,04/25.0/2026,2000,g 12.5,4.0
# From MPC191638
477P/PANSTARRS,e,8.9141,59.1357,305.8409,3.001262,0.1895607,0.41762411,161.2505,04/25.0/2026,2000,g 14.5,4.0
# From MPC191638
478P/ATLAS,e,12.5257,127.2572,13.2952,3.649068,0.1413941,0.34384024,102.1747,04/25.0/2026,2000,g 13.5,4.0
# From MPC191638
480P/PANSTARRS,e,13.7139,229.9867,214.5133,4.612881,0.0994823,0.24608661,109.1260,04/25.0/2026,2000,g 12.0,4.0
# From MPC191638
481P/Lemmon-PANSTARRS,e,6.0825,93.5522,356.8807,4.683912,0.0972279,0.34328325,99.2246,04/25.0/2026,2000,g 13.5,4.0
# From MPC191638
482P/PANSTARRS,e,24.4904,126.0693,339.7650,3.757762,0.1353039,0.49228193,143.1090,04/25.0/2026,2000,g 13.5,4.0
# From MPC191639
483P/PANSTARRS,e,14.1791,198.8297,49.9171,3.193467,0.1727072,0.22144144,262.0296,04/25.0/2026,2000,g 16.5,4.0
# From MPC186638
483P-A/PANSTARRS,e,14.1791,198.8298,49.9173,3.193467,0.1727072,0.22144183,262.0292,04/25.0/2026,2000,g 13.5,4.0
# From MPC185666
483P-B/PANSTARRS,e,14.1799,198.8293,49.9081,3.193382,0.1727141,0.22138565,262.0661,04/25.0/2026,2000,g 17.0,4.0
# From MPC191639
484P/Spacewatch,e,14.4746,265.3585,240.8641,3.755534,0.1354243,0.43325566,267.1675,04/25.0/2026,2000,g 16.0,4.0
# From MPC191639
485P/Sheppard-Tholen,e,10.0157,261.6478,196.1794,6.854428,0.0549221,0.41710165,53.4623,04/25.0/2026,2000,g 13.0,4.0
# From MPEC 2026-E43
486P/Leonard,e,2.2098,219.0232,93.9317,3.626524,0.1427145,0.36329567,55.1201,04/25.0/2026,2000,g 14.5,4.0
# From MPC191639
487P/SidingSpring,e,39.3660,49.2012,0.8363,5.159568,0.0840977,0.64822967,46.3804,04/25.0/2026,2000,g 13.5,4.0
# From MPC191639
488P/NEAT-PANSTARRS,e,11.6657,322.7951,3.8048,3.780029,0.1341101,0.55012269,94.3664,04/25.0/2026,2000,g 16.5,4.0
# From MPEC 2024-Q14
489P/Denning,e,4.0260,20.5972,109.4197,4.423955,0.1059224,0.64706449,15.0091,04/25.0/2026,2000,g 15.5,4.0
# From MPC191639
491P/Spacewatch-PANSTARRS,e,9.3672,311.6836,298.8104,5.012277,0.0878317,0.25874291,52.3818,04/25.0/2026,2000,g  9.5,4.0
# From MPEC 2026-E43
492P/LINEAR,e,11.4005,11.3056,40.9792,5.757018,0.0713523,0.69039381,45.9282,04/25.0/2026,2000,g 15.0,4.0
# From MPEC 2026-G41
493P/LONEOS,e,24.1078,1.0507,83.2727,7.185894,0.0511662,0.46799097,5.1574,04/25.0/2026,2000,g  8.5,4.0
# From MPC191640
494P/PANSTARRS,e,7.7893,245.0442,48.8911,3.794405,0.1333486,0.35650442,92.5687,04/25.0/2026,2000,g 16.0,4.0
# From MPEC 2026-E43
